{
  "type": "FeatureCollection",
  "name": "gran_concepcion_cycleway_overrides",
  "features": [
    {
      "type": "Feature",
      "properties": {
        "local_id": "local-victor-lamas-cycleway",
        "name": "Víctor Lamas",
        "category": "local_verified_cycleway",
        "source": "Corrección local",
        "source_detail": "Reportada por usuario; existencia contrastada con referencias públicas de Ciclovía del Estudiante/Parque Ecuador; geometría trazada sobre el eje Víctor Lamas de data/processed/road_network_parts/06__Concepcion.csv."
      },
      "geometry": {
        "type": "LineString",
        "coordinates": [
          [-73.0587287, -36.8362904],
          [-73.0584713, -36.8361791],
          [-73.0570218, -36.8355713],
          [-73.0565141, -36.8353591],
          [-73.0563569, -36.8353028],
          [-73.0562316, -36.8352579],
          [-73.0553739, -36.8349679],
          [-73.0552351, -36.8349185],
          [-73.0551606, -36.8348879],
          [-73.0550057, -36.8348267],
          [-73.0545142, -36.8346271],
          [-73.0544143, -36.8345874],
          [-73.0543312, -36.8345605],
          [-73.0542245, -36.83453],
          [-73.052828, -36.834175],
          [-73.0527733, -36.83416],
          [-73.0516605, -36.8338758],
          [-73.0514725, -36.8338282],
          [-73.050742, -36.8336437],
          [-73.0502488, -36.8335199],
          [-73.0501131, -36.8334803],
          [-73.0500157, -36.8334439],
          [-73.0488955, -36.8329769],
          [-73.0488325, -36.8329507],
          [-73.047608, -36.8324395],
          [-73.0475164, -36.8324013],
          [-73.0466051, -36.8320193],
          [-73.0465484, -36.8319978],
          [-73.0463526, -36.8319161],
          [-73.0451841, -36.8314291],
          [-73.0451026, -36.8313954],
          [-73.0449146, -36.831317],
          [-73.0445638, -36.8311707],
          [-73.0443618, -36.8310865],
          [-73.0439291, -36.830906],
          [-73.0438054, -36.8308559],
          [-73.0437237, -36.8308181],
          [-73.0436245, -36.8307676],
          [-73.0435232, -36.8307134],
          [-73.0426743, -36.830218],
          [-73.0425725, -36.8301582],
          [-73.0421381, -36.8298961],
          [-73.0415813, -36.8295252],
          [-73.0415176, -36.8294827],
          [-73.0404016, -36.8287737],
          [-73.0398294, -36.828398],
          [-73.0395897, -36.8282413],
          [-73.0393362, -36.8280743],
          [-73.0392804, -36.8280375]
        ]
      }
    }
  ]
}
